[
    {
        "Altitude(m)": 624792.801620821,
        "Argument of Periapsis(deg)": 0.0,
        "Eccentricity": 0.0,
        "Inclination(deg)": 60.0,
        "Latitude(deg)": -59.14717715368297,
        "Longitude(deg)": -50.97350724850557,
        "Mean Anomaly(deg)": -98.18179999999997,
        "RAAN(deg)": 155.0,
        "Satellite Name": "Test1 698",
        "Satellite Number": 698,
        "Semi-Major Axis(m)": 6980739.136638005,
        "Time(s)": 0
    },
    {
        "Altitude(m)": 624842.1932203036,
        "Argument of Periapsis(deg)": 0.00010418945913296404,
        "Eccentricity": 0.0,
        "Inclination(deg)": 60.0,
        "Latitude(deg)": -59.28925966055729,
        "Longitude(deg)": -49.8439997266829,
        "Mean Anomaly(deg)": -97.56169385453812,
        "RAAN(deg)": 154.99957995086027,
        "Satellite Name": "Test1 698",
        "Satellite Number": 698,
        "Semi-Major Axis(m)": 6980739.136638005,
        "Time(s)": 10
    },
    {
        "Altitude(m)": 624887.7605542091,
        "Argument of Periapsis(deg)": 0.0002083789182659281,
        "Eccentricity": 0.0,
        "Inclination(deg)": 60.0,
        "Latitude(deg)": -59.42073127297597,
        "Longitude(deg)": -48.70507166484911,
        "Mean Anomaly(deg)": -96.94158770907633,
        "RAAN(deg)": 154.99915990172053,
        "Satellite Name": "Test1 698",
        "Satellite Number": 698,
        "Semi-Major Axis(m)": 6980739.136638005,
        "Time(s)": 20
    },
    {
        "Altitude(m)": 624929.4856594221,
        "Argument of Periapsis(deg)": 0.00031256837739889213,
        "Eccentricity": 0.0,
        "Inclination(deg)": 60.0,
        "Latitude(deg)": -59.54145468982163,
        "Longitude(deg)": -47.55734537785236,
        "Mean Anomaly(deg)": -96.32148156361448,
        "RAAN(deg)": 154.99873985258077,
        "Satellite Name": "Test1 698",
        "Satellite Number": 698,
        "Semi-Major Axis(m)": 6980739.136638005,
        "Time(s)": 30
    },
    {
        "Altitude(m)": 624967.3520839794,
        "Argument of Periapsis(deg)": 0.0004167578365318562,
        "Eccentricity": 0.0,
        "Inclination(deg)": 60.0,
        "Latitude(deg)": -59.65130174354369,
        "Longitude(deg)": -46.401478165541675,
        "Mean Anomaly(deg)": -95.70137541815271,
        "RAAN(deg)": 154.99831980344103,
        "Satellite Name": "Test1 698",
        "Satellite Number": 698,
        "Semi-Major Axis(m)": 6980739.136638005,
        "Time(s)": 40
    },
    {
        "Altitude(m)": 625001.3448940379,
        "Argument of Periapsis(deg)": 0.0005209472956648203,
        "Eccentricity": 0.0,
        "Inclination(deg)": 60.0,
        "Latitude(deg)": -59.7501540392539,
        "Longitude(deg)": -45.23816147598814,
        "Mean Anomaly(deg)": -95.08126927269086,
        "RAAN(deg)": 154.99789975430127,
        "Satellite Name": "Test1 698",
        "Satellite Number": 698,
        "Semi-Major Axis(m)": 6980739.136638005,
        "Time(s)": 50
    },
    {
        "Altitude(m)": 625031.4506801418,
        "Argument of Periapsis(deg)": 0.0006251367547977843,
        "Eccentricity": 0.0,
        "Inclination(deg)": 60.0,
        "Latitude(deg)": -59.83790356074438,
        "Longitude(deg)": -44.06811823112668,
        "Mean Anomaly(deg)": -94.46116312722903,
        "RAAN(deg)": 154.99747970516154,
        "Satellite Name": "Test1 698",
        "Satellite Number": 698,
        "Semi-Major Axis(m)": 6980739.136638005,
        "Time(s)": 60
    },
    {
        "Altitude(m)": 625057.657562893,
        "Argument of Periapsis(deg)": 0.0007293262139307483,
        "Eccentricity": 0.0,
        "Inclination(deg)": 60.0,
        "Latitude(deg)": -59.91445323659537,
        "Longitude(deg)": -42.892099837932435,
        "Mean Anomaly(deg)": -93.84105698176717,
        "RAAN(deg)": 154.9970596560218,
        "Satellite Name": "Test1 698",
        "Satellite Number": 698,
        "Semi-Major Axis(m)": 6980739.136638005,
        "Time(s)": 70
    },
    {
        "Altitude(m)": 625079.9551979306,
        "Argument of Periapsis(deg)": 0.0008335156730637124,
        "Eccentricity": 0.0,
        "Inclination(deg)": 60.0,
        "Latitude(deg)": -59.97971745974334,
        "Longitude(deg)": -41.710884413912616,
        "Mean Anomaly(deg)": -93.22095083630535,
        "RAAN(deg)": 154.99663960688207,
        "Satellite Name": "Test1 698",
        "Satellite Number": 698,
        "Semi-Major Axis(m)": 6980739.136638005,
        "Time(s)": 80
    },
    {
        "Altitude(m)": 625098.3347803103,
        "Argument of Periapsis(deg)": 0.0009377051321966765,
        "Eccentricity": 0.0,
        "Inclination(deg)": 60.0,
        "Latitude(deg)": -60.03362255422968,
        "Longitude(deg)": -40.52527322256105,
        "Mean Anomaly(deg)": -92.6008446908435,
        "RAAN(deg)": 154.9962195577423,
        "Satellite Name": "Test1 698",
        "Satellite Number": 698,
        "Semi-Major Axis(m)": 6980739.136638005,
        "Time(s)": 90
    },
    {
        "Altitude(m)": 625112.7890481966,
        "Argument of Periapsis(deg)": 0.0010418945913296407,
        "Eccentricity": 0.0,
        "Inclination(deg)": 60.0,
        "Latitude(deg)": -60.07610718333898,
        "Longitude(deg)": -39.336086858350534,
        "Mean Anomaly(deg)": -91.98073854538167,
        "RAAN(deg)": 154.99579950860257,
        "Satellite Name": "Test1 698",
        "Satellite Number": 698,
        "Semi-Major Axis(m)": 6980739.136638005,
        "Time(s)": 100
    },
    {
        "Altitude(m)": 625123.3122859243,
        "Argument of Periapsis(deg)": 0.0011460840504626045,
        "Eccentricity": 0.0,
        "Inclination(deg)": 60.0,
        "Latitude(deg)": -60.10712269394673,
        "Longitude(deg)": -38.1441627257776,
        "Mean Anomaly(deg)": -91.36063239991987,
        "RAAN(deg)": 154.99537945946284,
        "Satellite Name": "Test1 698",
        "Satellite Number": 698,
        "Semi-Major Axis(m)": 6980739.136638005,
        "Time(s)": 110
    },
    {
        "Altitude(m)": 625129.9003264046,
        "Argument of Periapsis(deg)": 0.0012502735095955685,
        "Eccentricity": 0.0,
        "Inclination(deg)": 60.0,
        "Latitude(deg)": -60.12663339261674,
        "Longitude(deg)": -36.950350822774524,
        "Mean Anomaly(deg)": -90.74052625445799,
        "RAAN(deg)": 154.9949594103231,
        "Satellite Name": "Test1 698",
        "Satellite Number": 698,
        "Semi-Major Axis(m)": 6980739.136638005,
        "Time(s)": 120
    },
    {
        "Altitude(m)": 625132.5505528902,
        "Argument of Periapsis(deg)": 0.0013544629687285324,
        "Eccentricity": 0.0,
        "Inclination(deg)": 60.0,
        "Latitude(deg)": -60.13461674982289,
        "Longitude(deg)": -35.75550938121416,
        "Mean Anomaly(deg)": -90.12042010899624,
        "RAAN(deg)": 154.99453936118334,
        "Satellite Name": "Test1 698",
        "Satellite Number": 698,
        "Semi-Major Axis(m)": 6980739.136638005,
        "Time(s)": 130
    },
    {
        "Altitude(m)": 625131.2619000705,
        "Argument of Periapsis(deg)": 0.0014586524278614966,
        "Eccentricity": 0.0,
        "Inclination(deg)": 60.0,
        "Latitude(deg)": -60.13106352958188,
        "Longitude(deg)": -34.56050192023184,
        "Mean Anomaly(deg)": -89.50031396353435,
        "RAAN(deg)": 154.9941193120436,
        "Satellite Name": "Test1 698",
        "Satellite Number": 698,
        "Semi-Major Axis(m)": 6980739.136638005,
        "Time(s)": 140
    },
    {
        "Altitude(m)": 625126.034854518,
        "Argument of Periapsis(deg)": 0.0015628418869944607,
        "Eccentricity": 0.0,
        "Inclination(deg)": 60.0,
        "Latitude(deg)": -60.115977842757715,
        "Longitude(deg)": -33.3661927315966,
        "Mean Anomaly(deg)": -88.88020781807256,
        "RAAN(deg)": 154.99369926290387,
        "Satellite Name": "Test1 698",
        "Satellite Number": 698,
        "Semi-Major Axis(m)": 6980739.136638005,
        "Time(s)": 150
    },
    {
        "Altitude(m)": 625116.8714545037,
        "Argument of Periapsis(deg)": 0.0016670313461274247,
        "Eccentricity": 0.0,
        "Inclination(deg)": 60.0,
        "Latitude(deg)": -60.08937712332167,
        "Longitude(deg)": -32.17344235616149,
        "Mean Anomaly(deg)": -88.26010167261072,
        "RAAN(deg)": 154.99327921376414,
        "Satellite Name": "Test1 698",
        "Satellite Number": 698,
        "Semi-Major Axis(m)": 6980739.136638005,
        "Time(s)": 160
    },
    {
        "Altitude(m)": 625103.7752891203,
        "Argument of Periapsis(deg)": 0.0017712208052603888,
        "Eccentricity": 0.0,
        "Inclination(deg)": 60.0,
        "Latitude(deg)": -60.05129202789004,
        "Longitude(deg)": -30.983104610626523,
        "Mean Anomaly(deg)": -87.63999552714888,
        "RAAN(deg)": 154.99285916462438,
        "Satellite Name": "Test1 698",
        "Satellite Number": 698,
        "Semi-Major Axis(m)": 6980739.136638005,
        "Time(s)": 170
    },
    {
        "Altitude(m)": 625086.7514967958,
        "Argument of Periapsis(deg)": 0.001875410264393353,
        "Eccentricity": 0.0,
        "Inclination(deg)": 60.0,
        "Latitude(deg)": -60.00176625988406,
        "Longitude(deg)": -29.796022184405867,
        "Mean Anomaly(deg)": -87.01988938168704,
        "RAAN(deg)": 154.99243911548464,
        "Satellite Name": "Test1 698",
        "Satellite Number": 698,
        "Semi-Major Axis(m)": 6980739.136638005,
        "Time(s)": 180
    },
    {
        "Altitude(m)": 625065.8067631203,
        "Argument of Periapsis(deg)": 0.0019795997235263173,
        "Eccentricity": 0.0,
        "Inclination(deg)": 60.0,
        "Latitude(deg)": -59.94085632065903,
        "Longitude(deg)": -28.61302236325391,
        "Mean Anomaly(deg)": -86.39978323622525,
        "RAAN(deg)": 154.9920190663449,
        "Satellite Name": "Test1 698",
        "Satellite Number": 698,
        "Semi-Major Axis(m)": 6980739.136638005,
        "Time(s)": 190
    }
]